     2.100          NAVIGATION                              RINEX VERSION / TYPE
fic2rin                                 09/08/2008 02:38:56 PGM / RUN BY / DATE
                                                            END OF HEADER
28 08  9  7 22  0  0.0 -.223377719522D-04 -.227373675443D-12  .000000000000D+00
     .410000000000D+02 -.505937500000D+02  .436232456547D-08 -.233825565767D+01
    -.275671482086D-05  .139757042052D-01  .777281820774D-05  .515363573647D+04
     .792000000000D+05  .219792127609D-06  .217613133105D+01 -.149011611938D-07
     .964451161514D+00  .226843750000D+03 -.209308558834D+01 -.765067582421D-08
     .446804325479D-09  .100000000000D+01  .149600000000D+04  .000000000000D+00
     .340000000000D+01  .000000000000D+00 -.102445483208D-07  .410000000000D+02
     .720060000000D+05  .400000000000D+01
29 08  9  7 22  0  0.0 -.381609424949D-04  .795807864051D-12  .000000000000D+00
     .520000000000D+02 -.862500000000D+01  .487591738724D-08 -.120357066018D+00
    -.396743416786D-06  .351473048795D-02  .756978988647D-05  .515359988976D+04
     .792000000000D+05  .502914190292D-07 -.306628975006D+01 -.111758708954D-07
     .960145809698D+00  .234125000000D+03 -.137542681232D+01 -.813855328913D-08
     .682171272315D-10  .100000000000D+01  .149600000000D+04  .000000000000D+00
     .240000000000D+01  .000000000000D+00 -.884756445885D-08  .520000000000D+02
     .720060000000D+05  .400000000000D+01
30 08  9  7 22  0  0.0  .954330898821D-04  .204636307899D-11  .000000000000D+00
     .530000000000D+02 -.405312500000D+02  .479412826611D-08 -.189467057247D+01
    -.194460153580D-05  .110617749160D-01  .741332769394D-05  .515369182587D+04
     .792000000000D+05  .203028321266D-06  .210756078091D+01  .819563865662D-07
     .949501711380D+00  .227031250000D+03  .139727489550D+01 -.796997483859D-08
     .341085636157D-09  .100000000000D+01  .149600000000D+04  .000000000000D+00
     .240000000000D+01  .000000000000D+00 -.791624188423D-08  .530000000000D+02
     .720060000000D+05  .400000000000D+01
31 08  9  7 22  0  0.0 -.251107849181D-04  .000000000000D+00  .000000000000D+00
     .200000000000D+02 -.567812500000D+02  .422446168007D-08  .534824618895D+00
    -.303424894810D-05  .666993681807D-02  .614672899246D-05  .515353687859D+04
     .792000000000D+05 -.558793544769D-07  .109722674746D+01 -.875443220139D-07
     .969067079134D+00  .261812500000D+03 -.123969632788D+01 -.809819446516D-08
     .116433421348D-09  .100000000000D+01  .149600000000D+04  .000000000000D+00
     .240000000000D+01  .000000000000D+00 -.130385160446D-07  .200000000000D+02
     .720060000000D+05  .400000000000D+01
11 08  9  7 21 59 44.0  .202651135623D-04 -.682121026330D-12  .000000000000D+00
     .290000000000D+02  .316250000000D+02  .640919554015D-08  .550582341507D+00
     .181607902050D-05  .844131829217D-02  .712648034096D-05  .515364461327D+04
     .791840000000D+05  .260770320892D-07 -.223820413012D+01  .577419996262D-07
     .890600521635D+00  .200968750000D+03  .609275390194D+00 -.893608650959D-08
    -.373944147703D-09  .100000000000D+01  .149600000000D+04  .000000000000D+00
     .240000000000D+01  .000000000000D+00 -.121071934700D-07  .290000000000D+02
     .726960000000D+05  .400000000000D+01
20 08  9  7 21 59 44.0  .105273909867D-03 -.102318153949D-11  .000000000000D+00
     .400000000000D+01  .755312500000D+02  .478127058768D-08 -.139036983000D+01
     .376626849174D-05  .351725134533D-02  .602751970291D-05  .515378199196D+04
     .791840000000D+05  .279396772385D-07 -.101250894498D+01  .104308128357D-06
     .945600489222D+00  .256031250000D+03  .136741991643D+01 -.823212861549D-08
    -.246795994329D-09  .100000000000D+01  .149600000000D+04  .000000000000D+00
     .240000000000D+01  .000000000000D+00 -.651925802231D-08  .400000000000D+01
     .769560000000D+05  .400000000000D+01
20 08  9  7 23 59 44.0  .105266459286D-03 -.102318153949D-11  .000000000000D+00
     .500000000000D+01  .643125000000D+02  .491484758027D-08 -.340495250880D+00
     .333227217197D-05  .351607962511D-02  .598467886448D-05  .515377932358D+04
     .863840000000D+05 -.186264514923D-07 -.101256880905D+01  .186264514923D-07
     .945598473321D+00  .254843750000D+03  .136766296856D+01 -.831677499849D-08
    -.220009164265D-09  .100000000000D+01  .149600000000D+04  .000000000000D+00
     .240000000000D+01  .000000000000D+00 -.651925802231D-08  .500000000000D+01
     .792060000000D+05  .400000000000D+01
 2 08  9  8  0  0  0.0  .189070124179D-03 -.284217094304D-11  .000000000000D+00
     .350000000000D+02  .393750000000D+02  .497806449923D-08 -.270724041890D+01
     .211410224438D-05  .874277600087D-02  .823475420475D-05  .515377120781D+04
     .864000000000D+05 -.128522515297D-06 -.205129886947D+01  .745058059692D-07
     .942604351072D+00  .211156250000D+03  .263770836732D+01 -.797533220460D-08
    -.283940398686D-09  .100000000000D+01  .149600000000D+04  .000000000000D+00
     .240000000000D+01  .000000000000D+00 -.172294676304D-07  .350000000000D+02
     .792060000000D+05  .400000000000D+01
 3 08  9  8  0  0  0.0  .280432403088D-03  .511590769747D-11  .000000000000D+00
     .930000000000D+02 -.115625000000D+02  .546594196414D-08 -.303875247795D+01
    -.759959220886D-06  .111257166136D-01  .761449337006D-05  .515369522285D+04
     .864000000000D+05  .149011611938D-07  .308723915682D+01 -.229105353355D-06
     .926388600512D+00  .216000000000D+03  .845436463274D+00 -.819284126472D-08
     .145720355552D-09  .100000000000D+01  .149600000000D+04  .000000000000D+00
     .340000000000D+01  .000000000000D+00 -.419095158577D-08  .930000000000D+02
     .792060000000D+05  .400000000000D+01
 4 08  9  8  0  0  0.0 -.164879951626D-03 -.108002495836D-10  .000000000000D+00
     .300000000000D+01  .385937500000D+02  .511128433408D-08  .981237526196D-01
     .204332172871D-05  .827040034346D-02  .761449337006D-05  .515357874298D+04
     .864000000000D+05  .521540641785D-07 -.203257331617D+01  .428408384323D-07
     .941875332180D+00  .220656250000D+03  .393898800335D+00 -.827927343640D-08
    -.325370695853D-09  .100000000000D+01  .149600000000D+04  .000000000000D+00
     .240000000000D+01  .000000000000D+00 -.605359673500D-08  .300000000000D+01
     .792060000000D+05  .400000000000D+01
 5 08  9  8  0  0  0.0  .851363874972D-04 -.218051354750D-09  .000000000000D+00
     .800000000000D+01 -.485937500000D+02  .493699135979D-08 -.307741109030D+00
    -.257045030594D-05  .926932564471D-02  .779144465923D-05  .515369593811D+04
     .864000000000D+05 -.391155481339D-07  .205522294826D+01  .134110450745D-06
     .943439639259D+00  .227000000000D+03  .126996122977D+01 -.827713048999D-08
     .321084803042D-09  .100000000000D+01  .149600000000D+04  .000000000000D+00
     .240000000000D+01  .630000000000D+02 -.419095158577D-08  .800000000000D+01
     .792060000000D+05  .400000000000D+01
 6 08  9  8  0  0  0.0  .167124439031D-03 -.909494701773D-12  .000000000000D+00
     .570000000000D+02 -.687500000000D+01  .539129599769D-08 -.437145221790D+00
    -.473111867905D-06  .574765843339D-02  .775605440140D-05  .515371330833D+04
     .864000000000D+05 -.800937414169D-07 -.313051522577D+01 -.186264514923D-07
     .933932547205D+00  .219656250000D+03 -.158295269620D+01 -.840892169391D-08
     .130719730716D-09  .100000000000D+01  .149600000000D+04  .000000000000D+00
     .340000000000D+01  .000000000000D+00 -.465661287308D-08  .570000000000D+02
     .792060000000D+05  .400000000000D+01
 7 08  9  8  0  0  0.0  .155414454639D-04  .284217094304D-11  .000000000000D+00
     .190000000000D+02 -.675312500000D+02  .424517682865D-08  .193751151985D+01
    -.342726707458D-05  .218089122791D-02  .621005892754D-05  .515370283890D+04
     .864000000000D+05 -.428408384323D-07  .110053501820D+01  .428408384323D-07
     .963603994431D+00  .260531250000D+03  .271103660062D+01 -.798283251702D-08
     .650027076237D-10  .100000000000D+01  .149600000000D+04  .000000000000D+00
     .240000000000D+01  .000000000000D+00 -.107102096081D-07  .190000000000D+02
     .792060000000D+05  .400000000000D+01
 8 08  9  8  0  0  0.0 -.169054139405D-03 -.159161572810D-11  .000000000000D+00
     .174000000000D+03 -.728750000000D+02  .378837208662D-08  .115378142831D+01
    -.366568565369D-05  .105424319627D-01  .602006912231D-05  .515372410965D+04
     .864000000000D+05  .128522515297D-06  .115547858884D+01  .230967998505D-06
     .984754581678D+00  .273812500000D+03  .290272546441D+01 -.775318009393D-08
     .328585115460D-10  .100000000000D+01  .149600000000D+04  .000000000000D+00
     .485000000000D+01  .000000000000D+00 -.372529029846D-08  .174000000000D+03
     .792060000000D+05  .400000000000D+01
 9 08  9  8  0  0  0.0  .138417817652D-04  .181898940355D-11  .000000000000D+00
     .640000000000D+02 -.580937500000D+02  .421624705218D-08  .789295062633D+00
    -.323355197906D-05  .201602031011D-01  .602565705776D-05  .515366309738D+04
     .864000000000D+05 -.247731804848D-06  .106460419363D+01 -.137835741043D-06
     .972627290699D+00  .275562500000D+03  .143960959862D+01 -.828570227561D-08
    -.478591363823D-10  .100000000000D+01  .149600000000D+04  .000000000000D+00
     .340000000000D+01  .000000000000D+00 -.558793544769D-08  .640000000000D+02
     .792060000000D+05  .400000000000D+01
10 08  9  8  0  0  0.0 -.460678711534D-05 -.341060513165D-12  .000000000000D+00
     .720000000000D+02  .761875000000D+02  .440125475850D-08 -.178779499144D+01
     .393576920033D-05  .800412858371D-02  .655092298985D-05  .515370211983D+04
     .864000000000D+05  .596046447754D-07 -.968284725174D+00 -.894069671631D-07
     .962007128647D+00  .254406250000D+03  .556453400415D+00 -.794675958586D-08
    -.100718481043D-09  .100000000000D+01  .149600000000D+04  .000000000000D+00
     .240000000000D+01  .000000000000D+00 -.232830643654D-08  .720000000000D+02
     .792060000000D+05  .400000000000D+01
